{"type": "FeatureCollection", "features": [ {"type": "Feature", "properties": {"norad_id": 30447, "name": "FENGYUN 1C DEB", "group": "fengyun-1c-debris", "lat": -63.20365561497956, "lon": -120.11392081571238, "alt_km": 688.0989189973297, "timestamp": "2025-12-25T03:55:56.634426+00:00", "meta": {"OBJECT_NAME": "FENGYUN 1C DEB", "OBJECT_ID": "1999-025AFJ", "EPOCH": "2025-12-24T13:39:31.680288", "MEAN_MOTION": 14.56840373, "ECCENTRICITY": 0.0060176, "INCLINATION": 98.9703, "RA_OF_ASC_NODE": 221.0212, "ARG_OF_PERICENTER": 355.7838, "MEAN_ANOMALY": 62.8483, "EPHEMERIS_TYPE": 0, "CLASSIFICATION_TYPE": "U", "NORAD_CAT_ID": 30447, "ELEMENT_SET_NO": 999, "REV_AT_EPOCH": 98268, "BSTAR": 0.0027596, "MEAN_MOTION_DOT": 0.00012639, "MEAN_MOTION_DDOT": 0}, "tle": {"line1": "1 30447U 99025AFJ 25358.56911667  .00012639  00000+0  27596-2 0  9998", "line2": "2 30447  98.9703 221.0212 0060176 355.7838  62.8483 14.56840373982680"}}, "geometry": {"type": "Point", "coordinates": [-120.11392081571238, -63.20365561497956]}}, {"type": "Feature", "properties": {"norad_id": 30448, "name": "FENGYUN 1C DEB", "group": "fengyun-1c-debris", "lat": 43.93806842761541, "lon": -80.3411097732098, "alt_km": 782.0569977807472, "timestamp": "2025-12-25T03:55:56.634438+00:00", "meta": {"OBJECT_NAME": "FENGYUN 1C DEB", "OBJECT_ID": "1999-025AFK", "EPOCH": "2025-12-24T19:30:58.567104", "MEAN_MOTION": 14.35250592, "ECCENTRICITY": 0.0016914, "INCLINATION": 98.8297, "RA_OF_ASC_NODE": 90.686, "ARG_OF_PERICENTER": 333.2569, "MEAN_ANOMALY": 151.1449, "EPHEMERIS_TYPE": 0, "CLASSIFICATION_TYPE": "U", "NORAD_CAT_ID": 30448, "ELEMENT_SET_NO": 999, "REV_AT_EPOCH": 97511, "BSTAR": 0.0018717, "MEAN_MOTION_DOT": 5.323e-05, "MEAN_MOTION_DDOT": 0}, "tle": {"line1": "1 30448U 99025AFK 25358.81317786  .00005323  00000+0  18717-2 0  9996", "line2": "2 30448  98.8297  90.6860 0016914 333.2569 151.1449 14.35250592975119"}}, "geometry": {"type": "Point", "coordinates": [-80.3411097732098, 43.93806842761541]}}, {"type": "Feature", "properties": {"norad_id": 30450, "name": "FENGYUN 1C DEB", "group": "fengyun-1c-debris", "lat": 7.770757442133229, "lon": 11.81529596237579, "alt_km": 815.6930238694658, "timestamp": "2025-12-25T03:55:56.634448+00:00", "meta": {"OBJECT_NAME": "FENGYUN 1C DEB", "OBJECT_ID": "1999-025AFM", "EPOCH": "2025-12-24T00:13:18.228000", "MEAN_MOTION": 14.61854716, "ECCENTRICITY": 0.01896069, "INCLINATION": 98.08, "RA_OF_ASC_NODE": 11.7968, "ARG_OF_PERICENTER": 172.8396, "MEAN_ANOMALY": 243.0961, "EPHEMERIS_TYPE": 0, "CLASSIFICATION_TYPE": "U", "NORAD_CAT_ID": 30450, "ELEMENT_SET_NO": 999, "REV_AT_EPOCH": 99707, "BSTAR": 0.00054810885, "MEAN_MOTION_DOT": 3.488e-05, "MEAN_MOTION_DDOT": 0}, "tle": {"line1": "1 30450U 99025AFM 25358.00923875  .00003488  00000+0  54811-3 0  9998", "line2": "2 30450  98.0800  11.7968 0189606 172.8396 243.0961 14.61854716997077"}}, "geometry": {"type": "Point", "coordinates": [11.81529596237579, 7.770757442133229]}}, {"type": "Feature", "properties": {"norad_id": 30452, "name": "FENGYUN 1C DEB", "group": "fengyun-1c-debris", "lat": -34.3681965146727, "lon": 145.94132687065593, "alt_km": 694.6590372509118, "timestamp": "2025-12-25T03:55:56.634459+00:00", "meta": {"OBJECT_NAME": "FENGYUN 1C DEB", "OBJECT_ID": "1999-025AFP", "EPOCH": "2025-12-23T23:09:33.170400", "MEAN_MOTION": 14.64993236, "ECCENTRICITY": 0.0049324, "INCLINATION": 99.3222, "RA_OF_ASC_NODE": 138.1338, "ARG_OF_PERICENTER": 219.1968, "MEAN_ANOMALY": 266.1317, "EPHEMERIS_TYPE": 0, "CLASSIFICATION_TYPE": "U", "NORAD_CAT_ID": 30452, "ELEMENT_SET_NO": 999, "REV_AT_EPOCH": 98271, "BSTAR": 0.0040694, "MEAN_MOTION_DOT": 0.00022202, "MEAN_MOTION_DDOT": 0}, "tle": {"line1": "1 30452U 99025AFP 25357.96496725  .00022202  00000+0  40694-2 0  9991", "line2": "2 30452  99.3222 138.1338 0049324 219.1968 266.1317 14.64993236982718"}}, "geometry": {"type": "Point", "coordinates": [145.94132687065593, -34.3681965146727]}}, {"type": "Feature", "properties": {"norad_id": 30453, "name": "FENGYUN 1C DEB", "group": "fengyun-1c-debris", "lat": 39.230009191717265, "lon": 63.65367314173706, "alt_km": 878.6167139314475, "timestamp": "2025-12-25T03:55:56.634470+00:00", "meta": {"OBJECT_NAME": "FENGYUN 1C DEB", "OBJECT_ID": "1999-025AFQ", "EPOCH": "2025-12-24T04:24:50.764032", "MEAN_MOTION": 14.24836709, "ECCENTRICITY": 0.01162096, "INCLINATION": 98.8118, "RA_OF_ASC_NODE": 69.946, "ARG_OF_PERICENTER": 193.4482, "MEAN_ANOMALY": 223.447, "EPHEMERIS_TYPE": 0, "CLASSIFICATION_TYPE": "U", "NORAD_CAT_ID": 30453, "ELEMENT_SET_NO": 999, "REV_AT_EPOCH": 97397, "BSTAR": 0.001591509, "MEAN_MOTION_DOT": 3.941e-05, "MEAN_MOTION_DDOT": 0}, "tle": {"line1": "1 30453U 99025AFQ 25358.18392088  .00003941  00000+0  15915-2 0  9991", "line2": "2 30453  98.8118  69.9460 0116209 193.4482 223.4470 14.24836709973977"}}, "geometry": {"type": "Point", "coordinates": [63.65367314173706, 39.230009191717265]}}, {"type": "Feature", "properties": {"norad_id": 30454, "name": "FENGYUN 1C DEB", "group": "fengyun-1c-debris", "lat": -18.17678177658532, "lon": -28.986307708134426, "alt_km": 969.2130285927487, "timestamp": "2025-12-25T03:55:56.634480+00:00", "meta": {"OBJECT_NAME": "FENGYUN 1C DEB", "OBJECT_ID": "1999-025AFR", "EPOCH": "2025-12-24T16:58:35.567904", "MEAN_MOTION": 14.15470035, "ECCENTRICITY": 0.0171363, "INCLINATION": 98.1345, "RA_OF_ASC_NODE": 327.9052, "ARG_OF_PERICENTER": 160.0259, "MEAN_ANOMALY": 16.9982, "EPHEMERIS_TYPE": 0, "CLASSIFICATION_TYPE": "U", "NORAD_CAT_ID": 30454, "ELEMENT_SET_NO": 999, "REV_AT_EPOCH": 96129, "BSTAR": 0.0015832, "MEAN_MOTION_DOT": 3.528e-05, "MEAN_MOTION_DDOT": 0}, "tle": {"line1": "1 30454U 99025AFR 25358.70735611  .00003528  00000+0  15832-2 0  9992", "line2": "2 30454  98.1345 327.9052 0171363 160.0259  16.9982 14.15470035961292"}}, "geometry": {"type": "Point", "coordinates": [-28.986307708134426, -18.17678177658532]}}, {"type": "Feature", "properties": {"norad_id": 30462, "name": "FENGYUN 1C DEB", "group": "fengyun-1c-debris", "lat": 33.52620393287408, "lon": -18.814705095214247, "alt_km": 970.8014560148231, "timestamp": "2025-12-25T03:55:56.634490+00:00", "meta": {"OBJECT_NAME": "FENGYUN 1C DEB", "OBJECT_ID": "1999-025AFZ", "EPOCH": "2025-12-23T23:00:55.198944", "MEAN_MOTION": 14.06273574, "ECCENTRICITY": 0.0139048, "INCLINATION": 98.8177, "RA_OF_ASC_NODE": 345.9143, "ARG_OF_PERICENTER": 218.4939, "MEAN_ANOMALY": 199.1362, "EPHEMERIS_TYPE": 0, "CLASSIFICATION_TYPE": "U", "NORAD_CAT_ID": 30462, "ELEMENT_SET_NO": 999, "REV_AT_EPOCH": 96951, "BSTAR": 9.2061e-05, "MEAN_MOTION_DOT": 1.22e-06, "MEAN_MOTION_DDOT": 0}, "tle": {"line1": "1 30462U 99025AFZ 25357.95897221  .00000122  00000+0  92061-4 0  9991", "line2": "2 30462  98.8177 345.9143 0139048 218.4939 199.1362 14.06273574969517"}}, "geometry": {"type": "Point", "coordinates": [-18.814705095214247, 33.52620393287408]}}, {"type": "Feature", "properties": {"norad_id": 30464, "name": "FENGYUN 1C DEB", "group": "fengyun-1c-debris", "lat": -79.6524836478578, "lon": 170.83806858748758, "alt_km": 806.4606706790255, "timestamp": "2025-12-25T03:55:56.634500+00:00", "meta": {"OBJECT_NAME": "FENGYUN 1C DEB", "OBJECT_ID": "1999-025AGB", "EPOCH": "2025-12-24T17:03:08.502048", "MEAN_MOTION": 14.1024998, "ECCENTRICITY": 0.0108654, "INCLINATION": 98.8354, "RA_OF_ASC_NODE": 48.8072, "ARG_OF_PERICENTER": 224.4839, "MEAN_ANOMALY": 259.0321, "EPHEMERIS_TYPE": 0, "CLASSIFICATION_TYPE": "U", "NORAD_CAT_ID": 30464, "ELEMENT_SET_NO": 999, "REV_AT_EPOCH": 97232, "BSTAR": 5.1685e-05, "MEAN_MOTION_DOT": 5.3e-07, "MEAN_MOTION_DDOT": 0}, "tle": {"line1": "1 30464U 99025AGB 25358.71051507  .00000053  00000+0  51685-4 0  9997", "line2": "2 30464  98.8354  48.8072 0108654 224.4839 259.0321 14.10249980972324"}}, "geometry": {"type": "Point", "coordinates": [170.83806858748758, -79.6524836478578]}}, {"type": "Feature", "properties": {"norad_id": 30465, "name": "FENGYUN 1C DEB", "group": "fengyun-1c-debris", "lat": 80.89259535010892, "lon": 11.824318085843709, "alt_km": 772.1913754719571, "timestamp": "2025-12-25T03:55:56.634511+00:00", "meta": {"OBJECT_NAME": "FENGYUN 1C DEB", "OBJECT_ID": "1999-025AGC", "EPOCH": "2025-12-24T19:44:59.588160", "MEAN_MOTION": 14.3398793, "ECCENTRICITY": 0.0016328, "INCLINATION": 98.8284, "RA_OF_ASC_NODE": 87.2874, "ARG_OF_PERICENTER": 352.68, "MEAN_ANOMALY": 135.87, "EPHEMERIS_TYPE": 0, "CLASSIFICATION_TYPE": "U", "NORAD_CAT_ID": 30465, "ELEMENT_SET_NO": 999, "REV_AT_EPOCH": 97531, "BSTAR": 0.0017307, "MEAN_MOTION_DOT": 4.794e-05, "MEAN_MOTION_DDOT": 0}, "tle": {"line1": "1 30465U 99025AGC 25358.82291190  .00004794  00000+0  17307-2 0  9991", "line2": "2 30465  98.8284  87.2874 0016328 352.6800 135.8700 14.33987930975315"}}, "geometry": {"type": "Point", "coordinates": [11.824318085843709, 80.89259535010892]}}, {"type": "Feature", "properties": {"norad_id": 30466, "name": "FENGYUN 1C DEB", "group": "fengyun-1c-debris", "lat": -58.81391766759086, "lon": -155.60260556373564, "alt_km": 849.0197632994659, "timestamp": "2025-12-25T03:55:56.634521+00:00", "meta": {"OBJECT_NAME": "FENGYUN 1C DEB", "OBJECT_ID": "1999-025AGD", "EPOCH": "2025-12-24T14:01:04.706400", "MEAN_MOTION": 14.22588808, "ECCENTRICITY": 0.0115943, "INCLINATION": 98.6539, "RA_OF_ASC_NODE": 38.4006, "ARG_OF_PERICENTER": 349.8457, "MEAN_ANOMALY": 163.7798, "EPHEMERIS_TYPE": 0, "CLASSIFICATION_TYPE": "U", "NORAD_CAT_ID": 30466, "ELEMENT_SET_NO": 999, "REV_AT_EPOCH": 97519, "BSTAR": 0.0010427, "MEAN_MOTION_DOT": 2.453e-05, "MEAN_MOTION_DDOT": 0}, "tle": {"line1": "1 30466U 99025AGD 25358.58408225  .00002453  00000+0  10427-2 0  9990", "line2": "2 30466  98.6539  38.4006 0115943 349.8457 163.7798 14.22588808975193"}}, "geometry": {"type": "Point", "coordinates": [-155.60260556373564, -58.81391766759086]}}]}